STARLINK-2389           
1 47808U 21018X   26028.82862184  .00004322  00000+0  30893-3 0  9992
2 47808  53.0547  65.5644 0001638  95.5651 264.5525 15.06396598270710
STARLINK-2391           
1 47810U 21018Z   26029.00002315  .00874095  00000+0  40586-1 0  9998
2 47810  53.0988  79.5655 0001193  87.2568  87.2837 15.16987804  5708
STARLINK-2395           
1 47814U 21018AD  26028.94771515  .00008239  00000+0  29001-3 0  9999
2 47814  53.1589  67.4500 0001492  83.5202 276.5969 15.30198632270703
STARLINK-2396           
1 47815U 21018AE  26028.37893496 -.00000332  00000+0 -33704-5 0  9995
2 47815  53.0555  67.5794 0001464  96.7413 263.3743 15.06391995270581
STARLINK-2399           
1 47816U 21018AF  26028.52037362 -.00000857  00000+0 -38648-4 0  9998
2 47816  53.0565  71.9418 0001495  93.6796 266.4364 15.06406209270532
STARLINK-2400           
1 47817U 21018AG  26028.50719837  .00001540  00000+0  65713-4 0  9992
2 47817  53.1574  69.7397 0001316  72.9401 287.1744 15.29349056270566
STARLINK-2401           
1 47818U 21018AH  26028.41123427  .00003169  00000+0  23152-3 0  9996
2 47818  53.0550  77.9015 0001447  88.2836 271.8319 15.06407900270448
STARLINK-2402           
1 47819U 21018AJ  26028.83468368  .00009658  00000+0  34661-3 0  9995
2 47819  53.1582  68.1867 0001518  91.0978 269.0196 15.29353373270687
STARLINK-2406           
1 47821U 21018AL  26028.82297284  .00000291  00000+0  22415-4 0  9993
2 47821  53.1615  67.8864 0001802  87.8577 272.2630 15.29357849270629
STARLINK-2407           
1 47822U 21018AM  26029.00002315  .00822147  00000+0  34886-1 0  9998
2 47822  53.1146  79.3505 0001523  86.9599 285.1005 15.20281792  5745
STARLINK-2408           
1 47823U 21018AN  26028.52680302  .00006222  00000+0  43611-3 0  9999
2 47823  53.0535  71.9087 0001527 100.7220 259.3941 15.06408734270545
STARLINK-2409           
1 47824U 21018AP  26028.38399759  .00007164  00000+0  49918-3 0  9999
2 47824  53.0548  72.5606 0001799  72.2133 287.9052 15.06411392270512
STARLINK-2410           
1 47825U 21018AQ  26028.80550038  .00004508  00000+0  16430-3 0  9998
2 47825  53.1589  68.1032 0001977  99.1910 260.9314 15.30188798270624
STARLINK-2411           
1 47826U 21018AR  26029.00002315  .01568614  00000+0  59501-1 0  9990
2 47826  53.1279  69.1908 0001529  71.4353 283.8542 15.23201843  5757
STARLINK-2413           
1 47827U 21018AS  26028.31491923  .00000871  00000+0  77371-4 0  9994
2 47827  53.0557  63.1050 0001628 105.1640 254.9529 15.06388850270700
STARLINK-2415           
1 47828U 21018AT  26029.00002315  .01063034  00000+0  45490-1 0  9990
2 47828  53.1122  79.3429 0001314  66.3063 290.8867 15.19746345  5798
