[{"OBJECT_NAME":"STARLINK-2389","OBJECT_ID":"2021-018X","EPOCH":"2026-01-28T19:53:12.926976","MEAN_MOTION":15.06396598,"ECCENTRICITY":0.00016389,"INCLINATION":53.0547,"RA_OF_ASC_NODE":65.5644,"ARG_OF_PERICENTER":95.5651,"MEAN_ANOMALY":264.5525,"EPHEMERIS_TYPE":0,"CLASSIFICATION_TYPE":"U","NORAD_CAT_ID":47808,"ELEMENT_SET_NO":999,"REV_AT_EPOCH":27071,"BSTAR":0.00030892669,"MEAN_MOTION_DOT":4.322e-5,"MEAN_MOTION_DDOT":0},{"OBJECT_NAME":"STARLINK-2391","OBJECT_ID":"2021-018Z","EPOCH":"2026-01-29T00:00:02.000160","MEAN_MOTION":15.16987804,"ECCENTRICITY":0.00011935,"INCLINATION":53.0988,"RA_OF_ASC_NODE":79.5655,"ARG_OF_PERICENTER":87.2568,"MEAN_ANOMALY":87.2837,"EPHEMERIS_TYPE":0,"CLASSIFICATION_TYPE":"U","NORAD_CAT_ID":47810,"ELEMENT_SET_NO":999,"REV_AT_EPOCH":570,"BSTAR":0.040586169,"MEAN_MOTION_DOT":0.00874095,"MEAN_MOTION_DDOT":0},{"OBJECT_NAME":"STARLINK-2395","OBJECT_ID":"2021-018AD","EPOCH":"2026-01-28T22:44:42.588960","MEAN_MOTION":15.30198632,"ECCENTRICITY":0.00014927,"INCLINATION":53.1589,"RA_OF_ASC_NODE":67.45,"ARG_OF_PERICENTER":83.5202,"MEAN_ANOMALY":276.5969,"EPHEMERIS_TYPE":0,"CLASSIFICATION_TYPE":"U","NORAD_CAT_ID":47814,"ELEMENT_SET_NO":999,"REV_AT_EPOCH":27070,"BSTAR":0.00029001335,"MEAN_MOTION_DOT":8.239e-5,"MEAN_MOTION_DDOT":0},{"OBJECT_NAME":"STARLINK-2396","OBJECT_ID":"2021-018AE","EPOCH":"2026-01-28T09:05:39.980544","MEAN_MOTION":15.06391995,"ECCENTRICITY":0.00014646,"INCLINATION":53.0555,"RA_OF_ASC_NODE":67.5794,"ARG_OF_PERICENTER":96.7413,"MEAN_ANOMALY":263.3743,"EPHEMERIS_TYPE":0,"CLASSIFICATION_TYPE":"U","NORAD_CAT_ID":47815,"ELEMENT_SET_NO":999,"REV_AT_EPOCH":27058,"BSTAR":-3.370366e-6,"MEAN_MOTION_DOT":-3.32e-6,"MEAN_MOTION_DDOT":0},{"OBJECT_NAME":"STARLINK-2399","OBJECT_ID":"2021-018AF","EPOCH":"2026-01-28T12:29:20.280768","MEAN_MOTION":15.06406209,"ECCENTRICITY":0.00014951,"INCLINATION":53.0565,"RA_OF_ASC_NODE":71.9418,"ARG_OF_PERICENTER":93.6796,"MEAN_ANOMALY":266.4364,"EPHEMERIS_TYPE":0,"CLASSIFICATION_TYPE":"U","NORAD_CAT_ID":47816,"ELEMENT_SET_NO":999,"REV_AT_EPOCH":27053,"BSTAR":-3.8648465e-5,"MEAN_MOTION_DOT":-8.57e-6,"MEAN_MOTION_DDOT":0},{"OBJECT_NAME":"STARLINK-2400","OBJECT_ID":"2021-018AG","EPOCH":"2026-01-28T12:10:21.939168","MEAN_MOTION":15.29349056,"ECCENTRICITY":0.00013165,"INCLINATION":53.1574,"RA_OF_ASC_NODE":69.7397,"ARG_OF_PERICENTER":72.9401,"MEAN_ANOMALY":287.1744,"EPHEMERIS_TYPE":0,"CLASSIFICATION_TYPE":"U","NORAD_CAT_ID":47817,"ELEMENT_SET_NO":999,"REV_AT_EPOCH":27056,"BSTAR":6.5713346e-5,"MEAN_MOTION_DOT":1.54e-5,"MEAN_MOTION_DDOT":0},{"OBJECT_NAME":"STARLINK-2401","OBJECT_ID":"2021-018AH","EPOCH":"2026-01-28T09:52:10.640928","MEAN_MOTION":15.064079,"ECCENTRICITY":0.00014479,"INCLINATION":53.055,"RA_OF_ASC_NODE":77.9015,"ARG_OF_PERICENTER":88.2836,"MEAN_ANOMALY":271.8319,"EPHEMERIS_TYPE":0,"CLASSIFICATION_TYPE":"U","NORAD_CAT_ID":47818,"ELEMENT_SET_NO":999,"REV_AT_EPOCH":27044,"BSTAR":0.00023151862,"MEAN_MOTION_DOT":3.169e-5,"MEAN_MOTION_DDOT":0},{"OBJECT_NAME":"STARLINK-2402","OBJECT_ID":"2021-018AJ","EPOCH":"2026-01-28T20:01:56.669952","MEAN_MOTION":15.29353373,"ECCENTRICITY":0.00015189,"INCLINATION":53.1582,"RA_OF_ASC_NODE":68.1867,"ARG_OF_PERICENTER":91.0978,"MEAN_ANOMALY":269.0196,"EPHEMERIS_TYPE":0,"CLASSIFICATION_TYPE":"U","NORAD_CAT_ID":47819,"ELEMENT_SET_NO":999,"REV_AT_EPOCH":27068,"BSTAR":0.00034660619,"MEAN_MOTION_DOT":9.658e-5,"MEAN_MOTION_DDOT":0},{"OBJECT_NAME":"STARLINK-2406","OBJECT_ID":"2021-018AL","EPOCH":"2026-01-28T19:45:04.853376","MEAN_MOTION":15.29357849,"ECCENTRICITY":0.00018024,"INCLINATION":53.1615,"RA_OF_ASC_NODE":67.8864,"ARG_OF_PERICENTER":87.8577,"MEAN_ANOMALY":272.263,"EPHEMERIS_TYPE":0,"CLASSIFICATION_TYPE":"U","NORAD_CAT_ID":47821,"ELEMENT_SET_NO":999,"REV_AT_EPOCH":27062,"BSTAR":2.2415117e-5,"MEAN_MOTION_DOT":2.91e-6,"MEAN_MOTION_DDOT":0},{"OBJECT_NAME":"STARLINK-2407","OBJECT_ID":"2021-018AM","EPOCH":"2026-01-29T00:00:02.000160","MEAN_MOTION":15.20281792,"ECCENTRICITY":0.00015237,"INCLINATION":53.1146,"RA_OF_ASC_NODE":79.3505,"ARG_OF_PERICENTER":86.9599,"MEAN_ANOMALY":285.1005,"EPHEMERIS_TYPE":0,"CLASSIFICATION_TYPE":"U","NORAD_CAT_ID":47822,"ELEMENT_SET_NO":999,"REV_AT_EPOCH":574,"BSTAR":0.034886245,"MEAN_MOTION_DOT":0.00822147,"MEAN_MOTION_DDOT":0},{"OBJECT_NAME":"STARLINK-2408","OBJECT_ID":"2021-018AN","EPOCH":"2026-01-28T12:38:35.780928","MEAN_MOTION":15.06408734,"ECCENTRICITY":0.00015274,"INCLINATION":53.0535,"RA_OF_ASC_NODE":71.9087,"ARG_OF_PERICENTER":100.722,"MEAN_ANOMALY":259.3941,"EPHEMERIS_TYPE":0,"CLASSIFICATION_TYPE":"U","NORAD_CAT_ID":47823,"ELEMENT_SET_NO":999,"REV_AT_EPOCH":27054,"BSTAR":0.00043610601,"MEAN_MOTION_DOT":6.222e-5,"MEAN_MOTION_DDOT":0},{"OBJECT_NAME":"STARLINK-2409","OBJECT_ID":"2021-018AP","EPOCH":"2026-01-28T09:12:57.391776","MEAN_MOTION":15.06411392,"ECCENTRICITY":0.00017995,"INCLINATION":53.0548,"RA_OF_ASC_NODE":72.5606,"ARG_OF_PERICENTER":72.2133,"MEAN_ANOMALY":287.9052,"EPHEMERIS_TYPE":0,"CLASSIFICATION_TYPE":"U","NORAD_CAT_ID":47824,"ELEMENT_SET_NO":999,"REV_AT_EPOCH":27051,"BSTAR":0.00049917856,"MEAN_MOTION_DOT":7.164e-5,"MEAN_MOTION_DDOT":0},{"OBJECT_NAME":"STARLINK-2410","OBJECT_ID":"2021-018AQ","EPOCH":"2026-01-28T19:19:55.232832","MEAN_MOTION":15.30188798,"ECCENTRICITY":0.00019778,"INCLINATION":53.1589,"RA_OF_ASC_NODE":68.1032,"ARG_OF_PERICENTER":99.191,"MEAN_ANOMALY":260.9314,"EPHEMERIS_TYPE":0,"CLASSIFICATION_TYPE":"U","NORAD_CAT_ID":47825,"ELEMENT_SET_NO":999,"REV_AT_EPOCH":27062,"BSTAR":0.00016429795,"MEAN_MOTION_DOT":4.508e-5,"MEAN_MOTION_DDOT":0},{"OBJECT_NAME":"STARLINK-2411","OBJECT_ID":"2021-018AR","EPOCH":"2026-01-29T00:00:02.000160","MEAN_MOTION":15.23201843,"ECCENTRICITY":0.00015292,"INCLINATION":53.1279,"RA_OF_ASC_NODE":69.1908,"ARG_OF_PERICENTER":71.4353,"MEAN_ANOMALY":283.8542,"EPHEMERIS_TYPE":0,"CLASSIFICATION_TYPE":"U","NORAD_CAT_ID":47826,"ELEMENT_SET_NO":999,"REV_AT_EPOCH":575,"BSTAR":0.059501192,"MEAN_MOTION_DOT":0.01568614,"MEAN_MOTION_DDOT":0},{"OBJECT_NAME":"STARLINK-2413","OBJECT_ID":"2021-018AS","EPOCH":"2026-01-28T07:33:29.021472","MEAN_MOTION":15.0638885,"ECCENTRICITY":0.00016282,"INCLINATION":53.0557,"RA_OF_ASC_NODE":63.105,"ARG_OF_PERICENTER":105.164,"MEAN_ANOMALY":254.9529,"EPHEMERIS_TYPE":0,"CLASSIFICATION_TYPE":"U","NORAD_CAT_ID":47827,"ELEMENT_SET_NO":999,"REV_AT_EPOCH":27070,"BSTAR":7.7370767e-5,"MEAN_MOTION_DOT":8.71e-6,"MEAN_MOTION_DDOT":0},{"OBJECT_NAME":"STARLINK-2415","OBJECT_ID":"2021-018AT","EPOCH":"2026-01-29T00:00:02.000160","MEAN_MOTION":15.19746345,"ECCENTRICITY":0.00013146,"INCLINATION":53.1122,"RA_OF_ASC_NODE":79.3429,"ARG_OF_PERICENTER":66.3063,"MEAN_ANOMALY":290.8867,"EPHEMERIS_TYPE":0,"CLASSIFICATION_TYPE":"U","NORAD_CAT_ID":47828,"ELEMENT_SET_NO":999,"REV_AT_EPOCH":579,"BSTAR":0.045489701,"MEAN_MOTION_DOT":0.01063034,"MEAN_MOTION_DDOT":0}]
